<?xml version="1.0" encoding="utf-8"?>
<kml xmlns="http://www.opengis.net/kml/2.2">
  <Document>
    <Placemark>
      <name>Ю-12-1209/2</name>
      <Style id="2c6359ad-dd17-4269-b2e2-4d5fd26d47cc">
        <LineStyle>
          <color>ff000000</color>
          <width>1</width>
        </LineStyle>
        <PolyStyle>
          <color>ffbaa158</color>
          <colorMode>normal</colorMode>
        </PolyStyle>
      </Style>
      <Polygon>
        <outerBoundaryIs>
          <LinearRing>
            <coordinates>39.909185913000002,45.136631448000003
39.908795341999998,45.136072974999998
39.900127935,45.139115973999999
39.909419417000002,45.152672453000001
39.909709096,45.152861608000002
39.910143613999999,45.153413935000003
39.911581278,45.152857824999998
39.910921453999997,45.151968793000002
39.909451603999997,45.152275226999997
39.914139945000002,45.150686233000002
39.914372800000002,45.150768128000003
39.914942471000003,45.151661308000001
39.918720952000001,45.150040617999998
39.918627039999997,45.149889809000001
39.918445984000002,45.149955415999997
39.917347777000003,45.148515602000003
39.912718667,45.141561138999997
39.909185913000002,45.136631448000003</coordinates>
          </LinearRing>
        </outerBoundaryIs>
      </Polygon>
    </Placemark>
  </Document>
</kml>