<?xml version="1.0" encoding="utf-8"?>
<kml xmlns="http://www.opengis.net/kml/2.2">
  <Document>
    <Placemark>
      <name>Ю-11-1323</name>
      <Style id="988c018d-2559-485d-98f8-cf179c0225b6">
        <LineStyle>
          <color>ff000000</color>
          <width>1</width>
        </LineStyle>
        <PolyStyle>
          <color>ff6150ff</color>
          <colorMode>normal</colorMode>
        </PolyStyle>
      </Style>
      <Polygon>
        <outerBoundaryIs>
          <LinearRing>
            <coordinates>39.880384923000001,45.157410544000001
39.879327455999999,45.155944765999998
39.879290683000001,45.155893792000001
39.876605615999999,45.152171578000001
39.874444738999998,45.148784667999998
39.874146246000002,45.148269208999999
39.874178342,45.148227144000003
39.874088106000002,45.148089182
39.873956004999997,45.148132572000002
39.873027682,45.148477331000002
39.871218921000001,45.149124896000004
39.869911375000001,45.149565789
39.869193254000002,45.149801494000002
39.868879856,45.149887945000003
39.868721282999999,45.149870350999997
39.868684432000002,45.149953220999997
39.868472009999998,45.150085828999998
39.867840164999997,45.150328016000003
39.868969727,45.151897736999999
39.869892067000002,45.153309419000003
39.87224003,45.156540370999998
39.874105774,45.159188767000003
39.875319757,45.160965695999998
39.876358308,45.162598367000001
39.876656658999998,45.163389787
39.876777422000004,45.163611089
39.876852247999999,45.163806231000002
39.877818763000001,45.165166685000003
39.877991393999999,45.165462527999999
39.878110735,45.165586097000002
39.878224742,45.165649133999999
39.878355894999999,45.165664155000002
39.878554225000002,45.165652528000003
39.879014294999998,45.165572316999999
39.879487156000003,45.165390123999998
39.880182855000001,45.165131180000003
39.880628807000001,45.165106610000002
39.882013899,45.165200622
39.882644968999998,45.165243449999998
39.883105694999998,45.165170717999999
39.883807451999999,45.164966298000003
39.884955824000002,45.164544196999998
39.885332763999997,45.164362060999999
39.885370103,45.164300238999999
39.885353074000001,45.164240689000003
39.885305627000001,45.164185005999997
39.885166533000003,45.164008404999997
39.883057270000002,45.161088069000002
39.880384923000001,45.157410544000001</coordinates>
          </LinearRing>
        </outerBoundaryIs>
      </Polygon>
    </Placemark>
  </Document>
</kml>