<?xml version="1.0" encoding="utf-8"?>
<kml xmlns="http://www.opengis.net/kml/2.2">
  <Document>
    <Placemark>
      <name>Ю-12-1403</name>
      <Style id="8673af06-28bc-4fa2-95a7-6e2113be1183">
        <LineStyle>
          <color>ff000000</color>
          <width>1</width>
        </LineStyle>
        <PolyStyle>
          <color>ffbaa158</color>
          <colorMode>normal</colorMode>
        </PolyStyle>
      </Style>
      <Polygon>
        <outerBoundaryIs>
          <LinearRing>
            <coordinates>39.992342295,45.174402872000002
39.987365613000001,45.167368570000001
39.987159282,45.167356820999998
39.97942303,45.170277327999997
39.979056251000003,45.170249059
39.985532167999999,45.178987214000003
39.993495627000001,45.176117980999997
39.992342295,45.174402872000002</coordinates>
          </LinearRing>
        </outerBoundaryIs>
      </Polygon>
    </Placemark>
  </Document>
</kml>