<?xml version="1.0" encoding="utf-8"?>
<kml xmlns="http://www.opengis.net/kml/2.2">
  <Document>
    <Placemark>
      <name>Ю-16-1504</name>
      <Style id="107a04b6-fe68-4565-ac79-01b78001aae9">
        <LineStyle>
          <color>ff000000</color>
          <width>1</width>
        </LineStyle>
        <PolyStyle>
          <color>ff6150ff</color>
          <colorMode>normal</colorMode>
        </PolyStyle>
      </Style>
      <Polygon>
        <outerBoundaryIs>
          <LinearRing>
            <coordinates>40.020754224999997,45.154409780999998
40.013809019,45.144339612000003
40.013493658999998,45.144065243
40.005892856999999,45.146783163999999
40.005449841999997,45.14692222
40.005527530999998,45.147011933000002
40.005623876999998,45.147075377999997
40.010855868999997,45.154615092
40.013318716000001,45.158058052999998
40.019420732,45.166495912999999
40.019691541999997,45.166872189999999
40.022300156999997,45.165936293000001
40.022832960999999,45.165758609000001
40.023312306000001,45.165644290000003
40.023602840999999,45.165513246000003
40.024697295999999,45.165132495999998
40.025706087000003,45.164759439999997
40.026872578999999,45.164337191000001
40.027068798000002,45.16430476
40.027702089999998,45.164108577999997
40.027845141,45.164097947000002
40.027625116999999,45.163868874000002
40.027359635000003,45.163554808000001
40.022093022,45.156262728999998
40.020754224999997,45.154409780999998</coordinates>
          </LinearRing>
        </outerBoundaryIs>
      </Polygon>
    </Placemark>
  </Document>
</kml>