<?xml version="1.0" encoding="utf-8"?>
<kml xmlns="http://www.opengis.net/kml/2.2">
  <Document>
    <Placemark>
      <name>Ю-16-1603</name>
      <Style id="406c5c91-1dfa-4e37-ad7f-82b9b6d6c154">
        <LineStyle>
          <color>ff000000</color>
          <width>1</width>
        </LineStyle>
        <PolyStyle>
          <color>ffbaa158</color>
          <colorMode>normal</colorMode>
        </PolyStyle>
      </Style>
      <Polygon>
        <outerBoundaryIs>
          <LinearRing>
            <coordinates>40.060951867,45.152203559999997
40.061535382000002,45.152005387000003
40.061651691999998,45.152053391000003
40.061741634999997,45.152120471000003
40.061849629000001,45.152071505000002
40.061753897999999,45.152026943999999
40.061662968999997,45.15189135
40.061539551000003,45.151923056000001
40.061370386,45.15167976
40.058205985999997,45.147299844000003
40.047402257999998,45.132036276999997
40.047400078999999,45.131968933000003
40.047463315000002,45.131947216
40.047540267999999,45.131961226000001
40.047482301999999,45.131874754000002
40.047416624999997,45.131859888999998
40.047341897000003,45.131882378
40.046406216999998,45.132199751999998
40.045539427000001,45.132522195999996
40.042141471999997,45.133790062999999
40.039519429000002,45.134730257999998
40.039386561000001,45.134778017000002
40.039547634000002,45.134960651999997
40.039652760000003,45.134918167000002
40.039733153,45.134970346999999
40.048614581999999,45.147395773
40.053765499000001,45.154513375999997
40.053862930999998,45.154666515000002
40.060951867,45.152203559999997</coordinates>
          </LinearRing>
        </outerBoundaryIs>
      </Polygon>
    </Placemark>
  </Document>
</kml>