<?xml version="1.0" encoding="utf-8"?>
<kml xmlns="http://www.opengis.net/kml/2.2">
  <Document>
    <Placemark>
      <name>Ю-17-1712</name>
      <Style id="2dbca546-c866-40d7-8efa-696f8cc4333d">
        <LineStyle>
          <color>ff000000</color>
          <width>1</width>
        </LineStyle>
        <PolyStyle>
          <color>fff955ff</color>
          <colorMode>normal</colorMode>
        </PolyStyle>
      </Style>
      <Polygon>
        <outerBoundaryIs>
          <LinearRing>
            <coordinates>40.067746554999999,45.230684472999997
40.067689950999998,45.230476457000002
40.067440828000002,45.230409475000002
40.059612229000003,45.233353057000002
40.057933161000001,45.233870645000003
40.057924491999998,45.234223809
40.058305398000002,45.234891650000002
40.062782657,45.241857174000003
40.063127676000001,45.242299349
40.063689351000001,45.242506800999998
40.063313841999999,45.242695656999999
40.063850283999997,45.24343219
40.064110458000002,45.244144161999998
40.064410864999999,45.244129053999998
40.064220427999999,45.243392530999998
40.064338446000001,45.242831633000002
40.064590572999997,45.24254835
40.063667893000002,45.242450144000003
40.068875026999997,45.242708305999997
40.070996176000001,45.243949460000003
40.071024602000001,45.245565149000001
40.071214503999997,45.245803451999997
40.070824027,45.246314018
40.070609449999999,45.246940975999998
40.071129798999998,45.246990074999999
40.071435571000002,45.246986298000003
40.071800351,45.246419770999999
40.073119998000003,45.246366893999998
40.077250303,45.244889473999997
40.067746554999999,45.230684472999997</coordinates>
          </LinearRing>
        </outerBoundaryIs>
        <innerBoundaryIs>
          <LinearRing>
            <coordinates>40.062847400999999,45.232329123
40.062951816000002,45.232185133000002
40.063075478000002,45.232274416999999
40.070255764999999,45.242762698
40.070057122000001,45.242808848999999
40.062847400999999,45.232329123</coordinates>
          </LinearRing>
        </innerBoundaryIs>
      </Polygon>
    </Placemark>
  </Document>
</kml>