<?xml version="1.0" encoding="utf-8"?>
<kml xmlns="http://www.opengis.net/kml/2.2">
  <Document>
    <Placemark>
      <name>К-18-2074</name>
      <Style id="c06bebcb-c547-485c-ae6e-53ca33461397">
        <LineStyle>
          <color>ff000000</color>
          <width>1</width>
        </LineStyle>
        <PolyStyle>
          <color>ffbaa158</color>
          <colorMode>normal</colorMode>
        </PolyStyle>
      </Style>
      <Polygon>
        <outerBoundaryIs>
          <LinearRing>
            <coordinates>40.300376794999998,45.377177914000001
40.300402701000003,45.374667115999998
40.300402702,45.374667057000003
40.300433921,45.373347054
40.300433923,45.373346994999999
40.300453799000003,45.372810045000001
40.300454021999997,45.372808800999998
40.300508364999999,45.372642032000002
40.300512064000003,45.372334111999997
40.300215891000001,45.372231810999999
40.300215876000003,45.372231806000002
40.299353279999998,45.371932459
40.298068882999999,45.371485974000002
40.298068854,45.371485964000001
40.296716304,45.371011504000002
40.296716257999996,45.371011488000001
40.295527063000002,45.370588386999998
40.294541399000003,45.370246305000002
40.294541383000002,45.370246299000001
40.293456579999997,45.369867857000003
40.292807326999998,45.369645779000003
40.292804494000002,45.369879118
40.292803868,45.371858832000001
40.292815937999997,45.375550056000002
40.292815937999997,45.375550089000001
40.292798077,45.379642707999999
40.292801529000002,45.381157438999999
40.292801289000003,45.381158896999999
40.292775677999998,45.381235181000001
40.292774610999999,45.381237011000003
40.292772790000001,45.381238518000004
40.292770394000001,45.381239555999997
40.292767658999999,45.381240022
40.292764853000001,45.381239870999998
40.292639577000003,45.381218902000001
40.292633375000001,45.381231820000004
40.292682538000001,45.381242464000003
40.292682573999997,45.381242471999997
40.294186091999997,45.381572892000001
40.296074173000001,45.381950971000002
40.296074257999997,45.381950989000003
40.297730614999999,45.382295075999998
40.299173729000003,45.382587876000002
40.300041720999999,45.382759667000002
40.300042529999999,45.382759857000003
40.300231367999999,45.382811234999998
40.300228511999997,45.382674747000003
40.300210475999997,45.382580218000001
40.300210407000002,45.382579081000003
40.300285031000001,45.381473428
40.300299266000003,45.379938488999997
40.300299268000003,45.379938406000001
40.300376794999998,45.377177914000001</coordinates>
          </LinearRing>
        </outerBoundaryIs>
      </Polygon>
    </Placemark>
  </Document>
</kml>