<?xml version="1.0" encoding="utf-8"?>
<kml xmlns="http://www.opengis.net/kml/2.2">
  <Document>
    <Placemark>
      <name>К-18-2075</name>
      <Style id="35a79bf0-c7ad-4384-9b83-519a44d9368e">
        <LineStyle>
          <color>ff000000</color>
          <width>1</width>
        </LineStyle>
        <PolyStyle>
          <color>ffbaa158</color>
          <colorMode>normal</colorMode>
        </PolyStyle>
      </Style>
      <Polygon>
        <outerBoundaryIs>
          <LinearRing>
            <coordinates>40.308877555999999,45.379470554000001
40.308890914999999,45.377683542
40.308909462999999,45.375751069000003
40.308925221999999,45.375591434
40.308959170999998,45.375435557000003
40.309078102000001,45.375397284000002
40.309073179999999,45.375355491999997
40.308978977999999,45.375322781000001
40.308153578999999,45.375039891
40.307039572999997,45.374627469000004
40.306002243999998,45.374263868
40.304571772999999,45.373758219999999
40.302967615999997,45.373190766999997
40.301415620999997,45.372639169999999
40.300521093999997,45.372330198999997
40.300517339999999,45.372642771000002
40.300602505999997,45.372643279000002
40.300659203999999,45.372707177000002
40.300656031999999,45.372971282999998
40.300586912,45.37725082
40.300533516000002,45.379830773000002
40.300490345999997,45.381425528000001
40.300397898999996,45.382657711
40.300353133999998,45.382721193999998
40.300237486,45.382674280000003
40.300240627999997,45.382824419999999
40.300356020000002,45.382889767000002
40.300440770999998,45.382988155
40.300483726000003,45.383102825999998
40.300500139,45.383290897000002
40.300488813000001,45.384043061
40.300502338000001,45.3841216
40.300556542999999,45.384201158000003
40.300650312000002,45.384251226000003
40.300791816999997,45.384276614999997
40.301246679000002,45.384284532999999
40.302797882,45.384317832000001
40.304745726999997,45.384349610000001
40.306254289000002,45.384387685
40.307956468,45.384424699999997
40.308875008999998,45.384446562999997
40.308876789000003,45.384361785000003
40.308893797000003,45.381632973000002
40.308877555999999,45.379470554000001</coordinates>
          </LinearRing>
        </outerBoundaryIs>
      </Polygon>
    </Placemark>
  </Document>
</kml>