<?xml version="1.0" encoding="utf-8"?>
<kml xmlns="http://www.opengis.net/kml/2.2">
  <Document>
    <Placemark>
      <name>С-20-2106</name>
      <Style id="4c263da6-9d85-4b4b-b076-be24c6443630">
        <LineStyle>
          <color>ff000000</color>
          <width>1</width>
        </LineStyle>
        <PolyStyle>
          <color>ffbaa158</color>
          <colorMode>normal</colorMode>
        </PolyStyle>
      </Style>
      <Polygon>
        <outerBoundaryIs>
          <LinearRing>
            <coordinates>39.319737898,45.610207279000001
39.319837235999998,45.606729129999998
39.320250796000003,45.606692305000003
39.320259982000003,45.606380919000003
39.319550526999997,45.606368490000001
39.31962068,45.606539656999999
39.313386686000001,45.606522235
39.313481729999999,45.607015609999998
39.313254088000001,45.619283861
39.313207226000003,45.619528834999997
39.313101664999998,45.619526983
39.313091806999999,45.619893179000002
39.319931191000002,45.620003754000003
39.319986323000002,45.619632860000003
39.319650164000002,45.619620107000003
39.319566721999998,45.619300846000002
39.319737898,45.610207279000001</coordinates>
          </LinearRing>
        </outerBoundaryIs>
      </Polygon>
    </Placemark>
  </Document>
</kml>