<?xml version="1.0" encoding="utf-8"?>
<kml xmlns="http://www.opengis.net/kml/2.2">
  <Document>
    <Placemark>
      <name>С-20-2108</name>
      <Style id="d886af41-1b96-4b79-b952-fdb46f841109">
        <LineStyle>
          <color>ff000000</color>
          <width>1</width>
        </LineStyle>
        <PolyStyle>
          <color>ffbaa158</color>
          <colorMode>normal</colorMode>
        </PolyStyle>
      </Style>
      <Polygon>
        <outerBoundaryIs>
          <LinearRing>
            <coordinates>39.332547937999998,45.610150324999999
39.332634157000001,45.606491681999998
39.332264887000001,45.606488519000003
39.332260738999999,45.606557743000003
39.332043403,45.606611383000001
39.328176513000003,45.606578534000001
39.326613488,45.606567892000001
39.326611606,45.606677754000003
39.326680920999998,45.606668816999999
39.326794507999999,45.606699122000002
39.326769376999998,45.607082589000001
39.326728326999998,45.609583731999997
39.326607563000003,45.61377066
39.326498035999997,45.618255046999998
39.326474503,45.619573633999998
39.326432353000001,45.619842622
39.326385297000002,45.619896089999997
39.326338689000004,45.619909284000002
39.326335821999997,45.620051975000003
39.327221575000003,45.620063086999998
39.330523143000001,45.620094201999997
39.331823440000001,45.620095910000003
39.332384568999998,45.620065058999998
39.332443537000003,45.620051513
39.332491234000003,45.620019257000003
39.332542726,45.619946632999998
39.332582565999999,45.619816346999997
39.332359859999997,45.619876912000002
39.332276864000001,45.619845873999999
39.332322122999997,45.619736971999998
39.332373484999998,45.618585246999999
39.332445311999997,45.614716012999999
39.332547937999998,45.610150324999999</coordinates>
          </LinearRing>
        </outerBoundaryIs>
      </Polygon>
    </Placemark>
  </Document>
</kml>