<?xml version="1.0" encoding="utf-8"?>
<kml xmlns="http://www.opengis.net/kml/2.2">
  <Document>
    <Placemark>
      <name>С-20-2111</name>
      <Style id="c3d2c06c-bb55-45dd-b592-174da95bc358">
        <LineStyle>
          <color>ff000000</color>
          <width>1</width>
        </LineStyle>
        <PolyStyle>
          <color>ffbaa158</color>
          <colorMode>normal</colorMode>
        </PolyStyle>
      </Style>
      <Polygon>
        <outerBoundaryIs>
          <LinearRing>
            <coordinates>39.356467381000002,45.617052393000002
39.356532608000002,45.612458728
39.356504821000001,45.611680874000001
39.356551064000001,45.611430071999997
39.356549872000002,45.611251738
39.356511398999999,45.611305313999999
39.356384763999998,45.611342845000003
39.356239774000002,45.61134577
39.355800463000001,45.611324623999998
39.351639296999998,45.611319504999997
39.349297604999997,45.611356546000003
39.349292165000001,45.611563981000003
39.349293246000002,45.612159153
39.349254027999997,45.612403342999997
39.349157323,45.618864041000002
39.349066168,45.622488093000001
39.349023193999997,45.623472339000003
39.348973762999996,45.623698339999997
39.348833732000003,45.623700014000001
39.348831586999999,45.623795665000003
39.349055430999996,45.623805441999998
39.349688663000002,45.623784893
39.350194926999997,45.623734573999997
39.350781769000001,45.623724674000002
39.351172748000003,45.623679715999998
39.351388245000003,45.623593702000001
39.351500436000002,45.623480155000003
39.351503983000001,45.623401819000001
39.351453265000004,45.623264509999998
39.351368207,45.623084351000003
39.351332608,45.622944224000001
39.351341068000004,45.622872637
39.351432023000001,45.622837593
39.351552542999997,45.622864743999997
39.351728559999998,45.622959723999998
39.352041204999999,45.623159436000002
39.352317190999997,45.623330340000003
39.352490773,45.623370194000003
39.352780041000003,45.623384942000001
39.353064371000002,45.623363200999997
39.353390255999997,45.623257443999996
39.353820503000001,45.623140251000002
39.354796211,45.623016354999997
39.355877560000003,45.622949341999998
39.356464846000002,45.622963972999997
39.356444547000002,45.622802178999997
39.356473983000001,45.621745089000001
39.356437825999997,45.620927784999999
39.356467381000002,45.617052393000002</coordinates>
          </LinearRing>
        </outerBoundaryIs>
      </Polygon>
    </Placemark>
  </Document>
</kml>