<?xml version="1.0" encoding="utf-8"?>
<kml xmlns="http://www.opengis.net/kml/2.2">
  <Document>
    <Placemark>
      <name>К-19-2207</name>
      <Style id="c28ba3ba-1441-44e9-8989-c1db2e85c4ef">
        <LineStyle>
          <color>ff000000</color>
          <width>1</width>
        </LineStyle>
        <PolyStyle>
          <color>ffffd86c</color>
          <colorMode>normal</colorMode>
        </PolyStyle>
      </Style>
      <Polygon>
        <outerBoundaryIs>
          <LinearRing>
            <coordinates>39.925878615999999,45.387288257999998
39.925876866999999,45.386887022000003
39.925913727000001,45.386805799000001
39.925983402999996,45.386784560999999
39.926090727999998,45.386791520999999
39.926100486999999,45.386608248999998
39.923256803000001,45.386597219999999
39.921322515,45.386584296999999
39.919780283000001,45.386584468999999
39.91730913,45.386581978000002
39.915863516000002,45.386576126999998
39.915146063999998,45.386561399999998
39.915018484000001,45.386549772999999
39.914636532999999,45.386556927999997
39.914709408999997,45.390807402
39.914716413999997,45.392054827000003
39.914756275000002,45.393911328000002
39.914795505999997,45.395940469000003
39.914827957999996,45.397232528000004
39.914852914000001,45.397912662000003
39.914914502999999,45.397996499000001
39.915038523,45.398055628999998
39.916429151000003,45.398067095000002
39.918270081999999,45.398071803000001
39.921016944999998,45.398084547000003
39.923074186000001,45.398096015
39.926215620999997,45.398083636000003
39.926264236999998,45.398083518999996
39.926261748999998,45.398025822000001
39.926124561999998,45.397977935999997
39.926089969000003,45.397907689
39.926078687999997,45.397549802999997
39.926060843999998,45.396790912999997
39.926015677999999,45.393892940999997
39.925962996000003,45.391275344
39.925945962999997,45.389415603000003
39.925939505000002,45.388838722999999
39.925878615999999,45.387288257999998</coordinates>
          </LinearRing>
        </outerBoundaryIs>
      </Polygon>
    </Placemark>
  </Document>
</kml>