<?xml version="1.0" encoding="utf-8"?>
<kml xmlns="http://www.opengis.net/kml/2.2">
  <Document>
    <Placemark>
      <name>Ц-09-9123</name>
      <Style id="5b13d774-5577-4f51-b0e3-d0b687fc54cc">
        <LineStyle>
          <color>ff000000</color>
          <width>1</width>
        </LineStyle>
        <PolyStyle>
          <color>ffbaa158</color>
          <colorMode>normal</colorMode>
        </PolyStyle>
      </Style>
      <Polygon>
        <outerBoundaryIs>
          <LinearRing>
            <coordinates>39.578820635,45.316461521999997
39.578844255,45.315505473000002
39.57877165,45.315256570000003
39.578714419000001,45.314997316000003
39.578738944999998,45.313541823000001
39.578785941,45.311970109000001
39.578805543999998,45.307978939000002
39.578786933000004,45.306700994000003
39.578823438999997,45.306196468000003
39.577321341999998,45.306193657000001
39.575755119,45.306206727999999
39.573253727000001,45.306215313999999
39.570560149000002,45.306215225000003
39.569761008,45.306232346999998
39.568869186999997,45.306196905
39.567316480000002,45.306218841000003
39.566319000999997,45.306231662999998
39.56631934,45.306281554999998
39.566325356,45.307608426000002
39.566298437,45.312314667999999
39.566312754999998,45.315774196
39.566286392999999,45.317036350000002
39.566216406000002,45.320007687999997
39.566333827999998,45.320020927000002
39.566500101999999,45.320030969999998
39.566840204999998,45.320017049999997
39.567139900000001,45.320007474999997
39.567772265000002,45.320004212000001
39.568370391000002,45.320015495
39.570023808999998,45.320057104
39.570578361000003,45.320063965999999
39.570968655999998,45.320038285999999
39.571589175,45.320004009000002
39.572014025000001,45.319964427999999
39.573111380999997,45.319977983999998
39.573525699000001,45.319990791000002
39.575373479,45.320075074000002
39.576045852,45.320181044999998
39.577307472000001,45.320435121999999
39.577667335000001,45.320567494000002
39.578320161000001,45.320813160999997
39.578770444,45.320940594
39.578750229999997,45.319442395999999
39.578820635,45.316461521999997</coordinates>
          </LinearRing>
        </outerBoundaryIs>
      </Polygon>
    </Placemark>
  </Document>
</kml>