<?xml version="1.0" encoding="utf-8"?>
<kml xmlns="http://www.opengis.net/kml/2.2">
  <Document>
    <Placemark>
      <name>Ц-04-0127</name>
      <Style id="4df2bac0-eef3-4540-bb50-c1ef3251ee25">
        <LineStyle>
          <color>ff000000</color>
          <width>1</width>
        </LineStyle>
        <PolyStyle>
          <color>ffffc0c0</color>
          <colorMode>normal</colorMode>
        </PolyStyle>
      </Style>
      <Polygon>
        <outerBoundaryIs>
          <LinearRing>
            <coordinates>39.692986027000003,45.274305200000001
39.693023469000003,45.270577076000002
39.681183951999998,45.270479633000001
39.680948024000003,45.276032925000003
39.681009791999998,45.279606078
39.693000806999997,45.279663493000001
39.692986027000003,45.274305200000001</coordinates>
          </LinearRing>
        </outerBoundaryIs>
      </Polygon>
    </Placemark>
  </Document>
</kml>