<?xml version="1.0" encoding="utf-8"?>
<kml xmlns="http://www.opengis.net/kml/2.2">
  <Document>
    <Placemark>
      <name>С-07-0723</name>
      <Style id="0565f9bc-f77f-4042-a50c-b2321916ef00">
        <LineStyle>
          <color>ff000000</color>
          <width>1</width>
        </LineStyle>
        <PolyStyle>
          <color>ffbaa158</color>
          <colorMode>normal</colorMode>
        </PolyStyle>
      </Style>
      <Polygon>
        <outerBoundaryIs>
          <LinearRing>
            <coordinates>39.595407844,45.389454270999998
39.595981836,45.389778262
39.596362710000001,45.390128621999999
39.597580432999997,45.390527955000003
39.598519205999999,45.390622135999998
39.599404335000003,45.390686180000003
39.600568414000001,45.391296472999997
39.601067305000001,45.391978336000001
39.601394534000001,45.392275943000001
39.601775408000002,45.392377656000001
39.601711035000001,45.392987931
39.600922464999996,45.392825944999998
39.600284100000003,45.392309847
39.599635005000003,45.391594083000001
39.599211216,45.391375584999999
39.598685502999999,45.391288938999999
39.596448541000001,45.391029000000003
39.595359563999999,45.390753990999997
39.594603180999997,45.390712551
39.594517349999997,45.390810498999997
39.594473630000003,45.391145627999997
39.594474491,45.391145729000002
39.594474462999997,45.391147785999998
39.594473630000003,45.391147687999997
39.594443177000002,45.395755080999997
39.594329971999997,45.395754023000002
39.594326158999998,45.395753642000003
39.594297408999999,45.395662516000002
39.594329596000001,45.390166295
39.594361782,45.390068345000003
39.594082831999998,45.390015603000002
39.590531507999998,45.389649294999998
39.590567964999998,45.391148762
39.590686091999999,45.394563501999997
39.590670467000002,45.395721047000002
39.590708683999999,45.395761237000002
39.590768236000002,45.395789145999998
39.592188501999999,45.395788703999997
39.594329596000001,45.395809426
39.595686792999999,45.395847095000001
39.599018096999998,45.395835794
39.601759315000002,45.395816959999998
39.601775408000002,45.395715252999999
39.601732491999996,45.393025602000002
39.601823688000003,45.392415327000002
39.601882695999997,45.391931247000002
39.601855874000002,45.391769257999997
39.601925610999999,45.387239029
39.601925610999999,45.386877347999999
39.601947068999998,45.383267951999997
39.601947068999998,45.383056957000001
39.601563818999999,45.383101422999999
39.601171069000003,45.383185609999998
39.600726786000003,45.383229862
39.59989787,45.383334142999999
39.599378938999998,45.383386010000002
39.599081802000001,45.383432941000002
39.598877057000003,45.383451434000001
39.598784682000002,45.383444369000003
39.598587938999998,45.383436250000003
39.598189736999998,45.383455939999997
39.597783810000003,45.383481604000004
39.597389730000003,45.383519671999998
39.597038183000002,45.383567573000001
39.596835442,45.383598470999999
39.596688665000002,45.383639721999998
39.596569248999998,45.383710311000002
39.596471739999998,45.383811110000003
39.596426186000002,45.383892508000002
39.596428687,45.383980432999998
39.596384344999997,45.384117580000002
39.596335560999997,45.384218568999998
39.596253609000001,45.384334666000001
39.596116541999997,45.384425235999998
39.595945444000002,45.384498614999998
39.595772277999998,45.384528084999999
39.595494960000003,45.384566468999999
39.595298775000003,45.384595945999997
39.595118966999998,45.384631816000002
39.594991813999997,45.384705009999998
39.594921452999998,45.384772734999999
39.594887343000003,45.384835926000001
39.594850948000001,45.384937303999997
39.594841305999999,45.385042851999998
39.594837699999999,45.385260095
39.594807031000002,45.385433415999998
39.594740022000003,45.385538171999997
39.594592526,45.385653238000003
39.594436266000002,45.385742172
39.594238400000002,45.385867644999998
39.594243765000002,45.389043629
39.594270586999997,45.389100139999996
39.595407844,45.389454270999998</coordinates>
          </LinearRing>
        </outerBoundaryIs>
      </Polygon>
    </Placemark>
  </Document>
</kml>