<?xml version="1.0" encoding="utf-8"?>
<kml xmlns="http://www.opengis.net/kml/2.2">
  <Document>
    <Placemark>
      <name>Ц-06-0605</name>
      <Style id="16eee3e5-0056-4ef1-a509-cbbbc8ff5a44">
        <LineStyle>
          <color>ff000000</color>
          <width>1</width>
        </LineStyle>
        <PolyStyle>
          <color>ff6150ff</color>
          <colorMode>normal</colorMode>
        </PolyStyle>
      </Style>
      <Polygon>
        <outerBoundaryIs>
          <LinearRing>
            <coordinates>39.762804979999999,45.415420328000003
39.762832903000003,45.413491778000001
39.762877426000003,45.411151838000002
39.762899005999998,45.408198536
39.762905162999999,45.407912646
39.762966652000003,45.407860491999998
39.762969353999999,45.407751959000002
39.757728505000003,45.407831856000001
39.757179161000003,45.407842770000002
39.757064796000002,45.407795311999998
39.757066553999998,45.407714075000001
39.757127601999997,45.407636203999999
39.756952134999999,45.407637627
39.756849680999998,45.412054707000003
39.756843167,45.418841976000003
39.756924548999997,45.422637029999997
39.756935659,45.423045508000001
39.756989873000002,45.423023100999998
39.757076451000003,45.423034610999999
39.757236480000003,45.423008443999997
39.757435626000003,45.422959337999998
39.757759624999998,45.422855757000001
39.757960721000003,45.422762249999998
39.758117398000003,45.422605486000002
39.758277708000001,45.422426588999997
39.758336702000001,45.422316975000001
39.758346920999998,45.422120405999998
39.758367913999997,45.422031459000003
39.758400045000002,45.421994410000003
39.758464609000001,45.421969214000001
39.758609495000002,45.421974755000001
39.758739024999997,45.421997564000002
39.75894796,45.422049723000001
39.759262734000004,45.422065869999997
39.759726694000001,45.422033501999998
39.760169763,45.421985972999998
39.760595742,45.421910877000002
39.761511241999997,45.421524142000003
39.761928318999999,45.421246373000002
39.762768317000003,45.420642243000003
39.762761042999998,45.420131263000002
39.762757743000002,45.418933191999997
39.762804979999999,45.415420328000003</coordinates>
          </LinearRing>
        </outerBoundaryIs>
      </Polygon>
    </Placemark>
  </Document>
</kml>