<?xml version="1.0" encoding="utf-8"?>
<kml xmlns="http://www.opengis.net/kml/2.2">
  <Document>
    <Placemark>
      <name>Ю-11-1322</name>
      <Style id="56b1b981-40bb-4f40-a495-f6949062f4dd">
        <LineStyle>
          <color>ff000000</color>
          <width>1</width>
        </LineStyle>
        <PolyStyle>
          <color>ff6150ff</color>
          <colorMode>normal</colorMode>
        </PolyStyle>
      </Style>
      <Polygon>
        <outerBoundaryIs>
          <LinearRing>
            <coordinates>39.862292230999998,45.141766554
39.862049560000003,45.141182452999999
39.861611691999997,45.140574589000003
39.861063457999997,45.139736732000003
39.860838639000001,45.139262303000002
39.859855209000003,45.137707325999997
39.85942696,45.137032208999997
39.859189237999999,45.136693751999999
39.858527100000003,45.135928945000003
39.857796837000002,45.134891654999997
39.857298972999999,45.134093581999998
39.857202690999998,45.134052515
39.857029423,45.134049754999999
39.856590617000002,45.134136322000003
39.856226833000001,45.134330104999997
39.855997045999999,45.134434314000003
39.855903068000003,45.134519206999997
39.855848838999997,45.134597317000001
39.855834971,45.134706868999999
39.855937431000001,45.134903573000003
39.856172196999999,45.135288404999997
39.856774498,45.136091118000003
39.857106825999999,45.136744116000003
39.857256227999997,45.136961669999998
39.857290386999999,45.137054061999997
39.857292168999997,45.137137656
39.857241207000001,45.137202561999999
39.857124468000002,45.137281285
39.857023916999999,45.137305679999997
39.856733853999998,45.137291570999999
39.856310084,45.137200219999997
39.855926412999999,45.137092392
39.855722295,45.137038377000003
39.854185278999999,45.136609180999997
39.853494538,45.136390933000001
39.852834884000004,45.136235841000001
39.852006848999999,45.136155862999999
39.851550652999997,45.136200119000002
39.851028020999998,45.136347766
39.850439021,45.136588648
39.850489410999998,45.136640243999999
39.852035585000003,45.138429242000001
39.852070267000002,45.138328866999998
39.852159778999997,45.138290126999998
39.852409068999997,45.138320665000002
39.852560003000001,45.138500966000002
39.853170124000002,45.139388136000001
39.853845640000003,45.140359437000001
39.854668785999998,45.141599280000001
39.855146521000002,45.142363158999999
39.855133746,45.142451428000001
39.855051879999998,45.142500016
39.854948718999999,45.142509396000001
39.854832031000001,45.142458845999997
39.854678456000002,45.142663145
39.854866676999997,45.142697444
39.855017298999996,45.142753816000003
39.855172219000004,45.142873876000003
39.855346451000003,45.143059715
39.855513791,45.143319564999999
39.855786707999997,45.143770521999997
39.855890367000001,45.143917848000001
39.855902411999999,45.143845051
39.855946912,45.143803863999999
39.856063153999997,45.143784869999998
39.856189549,45.143829085999997
39.856385160999999,45.144036620999998
39.857450937000003,45.145524874000003
39.859903379000002,45.148795589999999
39.861492748000003,45.150874295000001
39.862275738999998,45.151934349000001
39.862402660999997,45.152149346999998
39.863146,45.151894913
39.865482948,45.151027130999999
39.867820807999998,45.150140204000003
39.868501012999999,45.149920311999999
39.868629102,45.149927771999998
39.868690104999999,45.149790590000002
39.868393165999997,45.149738022000001
39.868301074000001,45.149611235000002
39.866896568000001,45.147790723999996
39.864722661999998,45.145045140999997
39.862292230999998,45.141766554</coordinates>
          </LinearRing>
        </outerBoundaryIs>
      </Polygon>
    </Placemark>
  </Document>
</kml>