<?xml version="1.0" encoding="utf-8"?>
<kml xmlns="http://www.opengis.net/kml/2.2">
  <Document>
    <Placemark>
      <name>С-07-0710</name>
      <Style id="2b38c0f0-5d18-49c7-afaf-c93bf9f44009">
        <LineStyle>
          <color>ff000000</color>
          <width>1</width>
        </LineStyle>
        <PolyStyle>
          <color>ff6150ff</color>
          <colorMode>normal</colorMode>
        </PolyStyle>
      </Style>
      <Polygon>
        <outerBoundaryIs>
          <LinearRing>
            <coordinates>39.608641994000003,45.418897717
39.608715273999998,45.418846623
39.601247313999998,45.418821952999998
39.601246107000001,45.418975859
39.601388659999998,45.419074870000003
39.601428831,45.422207317000002
39.601258332,45.441129656999998
39.608435694000001,45.441214270000003
39.608641994000003,45.418897717</coordinates>
          </LinearRing>
        </outerBoundaryIs>
      </Polygon>
    </Placemark>
  </Document>
</kml>