<?xml version="1.0" encoding="utf-8"?>
<kml xmlns="http://www.opengis.net/kml/2.2">
  <Document>
    <Placemark>
      <name>С-10-1043</name>
      <Style id="2dbc1211-4f0c-479a-8ec2-377b40542caa">
        <LineStyle>
          <color>ff000000</color>
          <width>1</width>
        </LineStyle>
        <PolyStyle>
          <color>ff6150ff</color>
          <colorMode>normal</colorMode>
        </PolyStyle>
      </Style>
      <Polygon>
        <outerBoundaryIs>
          <LinearRing>
            <coordinates>39.423871071999997,45.536454057999997
39.424028767000003,45.536412558999999
39.424167095999998,45.536376593
39.424410555999998,45.536365527000001
39.424548885,45.536365527000001
39.424720413000003,45.536304661999999
39.424983238000003,45.536282530000001
39.425024434999997,45.536269744000002
39.425027790999998,45.536271051
39.425101492000003,45.536268419999999
39.425322405999999,45.536295377000002
39.425612055999999,45.536306203999999
39.425783451000001,45.536324825000001
39.426237153999999,45.536373990999998
39.426480265999999,45.536388514999999
39.426706701000001,45.536399244999998
39.426887364999999,45.536400884000003
39.427277813000003,45.536389247999999
39.427516081999997,45.536375380999999
39.427730351999998,45.536352368000003
39.427980613999999,45.536308366
39.428586023999998,45.536198024999997
39.428732334999999,45.536176750000003
39.428904277999997,45.536171555000003
39.429120136000002,45.536194258999998
39.429376251999997,45.536246781999999
39.429654100999997,45.536333315999997
39.429612933999998,45.536218529999999
39.429645432000001,45.535689685999998
39.429648417000003,45.535507981999999
39.429630336999999,45.535101382000001
39.429612470999999,45.534799720999999
39.429595562000003,45.530383553999997
39.429539562000002,45.527254427999999
39.429525984000001,45.525795436999999
39.429528271999999,45.523146421
39.429553417000001,45.521064744
39.429558608000001,45.520774476
39.429663435000002,45.520691685999999
39.429635239,45.520660952
39.428264032000001,45.520704447
39.427206861000002,45.520720943000001
39.425658499000001,45.520732627000001
39.422528,45.520734605999998
39.420519243000001,45.520731775000002
39.420265006000001,45.520745783999999
39.420117894000001,45.520825185
39.420188854999999,45.520877417000001
39.420183131999998,45.521178313
39.420186231000002,45.524215232000003
39.420147866999997,45.529207026999998
39.420130055000001,45.532209504999997
39.420113512999997,45.532432217999997
39.420019359999998,45.532540314999999
39.420021286000001,45.532625715000002
39.420021791000003,45.532625699999997
39.420022887999998,45.532670688000003
39.420020991000001,45.532670742999997
39.419993097999999,45.536924958999997
39.419987651,45.537755801000003
39.420067521,45.537735171999998
39.420308902999999,45.537660289000002
39.420444986,45.537620517000001
39.420525130999998,45.537600990999998
39.420702939999998,45.537567975000002
39.420793834000001,45.537554170999996
39.421055453999998,45.537526845999999
39.421452446000004,45.537500639000001
39.421852068,45.537481573000001
39.422085369000001,45.537472340000001
39.422339979,45.537453958999997
39.422513928999997,45.537434349000002
39.422611658000001,45.537421879999997
39.422753522999997,45.537396628000003
39.422956843999998,45.537340249000003
39.423086961000003,45.537279495999996
39.423194160999998,45.537220251999997
39.423290938000001,45.537143667999999
39.423377402,45.537056886000002
39.423503912000001,45.536889555999998
39.423683617000002,45.536633618000003
39.423767517999998,45.536547439000003
39.423764843999997,45.536539040000001
39.423871071999997,45.536454057999997</coordinates>
          </LinearRing>
        </outerBoundaryIs>
      </Polygon>
    </Placemark>
  </Document>
</kml>